[{"OBJECT_NAME":"STARLINK-30339","OBJECT_ID":"2023-144U","EPOCH":"2026-03-09T22:00:01.999584","MEAN_MOTION":15.2672605,"ECCENTRICITY":0.00013718,"INCLINATION":43.0007,"RA_OF_ASC_NODE":283.9774,"ARG_OF_PERICENTER":271.6019,"MEAN_ANOMALY":8.7233,"EPHEMERIS_TYPE":0,"CLASSIFICATION_TYPE":"U","NORAD_CAT_ID":57882,"ELEMENT_SET_NO":999,"REV_AT_EPOCH":578,"BSTAR":0.00099307862,"MEAN_MOTION_DOT":0.00026462,"MEAN_MOTION_DDOT":0},{"OBJECT_NAME":"FLOCK 4G-12","OBJECT_ID":"2025-009S","EPOCH":"2026-03-09T17:16:21.445824","MEAN_MOTION":15.27059194,"ECCENTRICITY":0.00028933,"INCLINATION":97.4059,"RA_OF_ASC_NODE":151.1894,"ARG_OF_PERICENTER":310.1775,"MEAN_ANOMALY":49.9211,"EPHEMERIS_TYPE":0,"CLASSIFICATION_TYPE":"U","NORAD_CAT_ID":62625,"ELEMENT_SET_NO":999,"REV_AT_EPOCH":6371,"BSTAR":0.00043519262,"MEAN_MOTION_DOT":0.00011487,"MEAN_MOTION_DDOT":0}]
